[{"ORDINAL":"1","COMMENT":"GENERATED VIA SPACETRACK.ORG API","ORIGINATOR":"JSPOC","NORAD_CAT_ID":"25023","OBJECT_NAME":"MAQSAT H","OBJECT_TYPE":"PAYLOAD","CLASSIFICATION_TYPE":"U","INTLDES":"97066A","EPOCH":"2016-06-23 07:03:20","EPOCH_MICROSECONDS":"874240","MEAN_MOTION":"3.0995132","ECCENTRICITY":"0.6499829","INCLINATION":"7.6369","RA_OF_ASC_NODE":"219.0081","ARG_OF_PERICENTER":"98.5543","MEAN_ANOMALY":"334.7426","EPHEMERIS_TYPE":"0","ELEMENT_SET_NO":"999","REV_AT_EPOCH":"21080","BSTAR":"3.8686e-05","MEAN_MOTION_DOT":"5e-08","MEAN_MOTION_DDOT":"0","FILE":"2050746","TLE_LINE0":"0 MAQSAT H","TLE_LINE1":"1 25023U 97066A   16175.29399160  .00000005  00000-0  38686-4 0  9999","TLE_LINE2":"2 25023   7.6369 219.0081 6499829  98.5543 334.7426  3.09951320210809","OBJECT_ID":"1997-066A","OBJECT_NUMBER":"25023","SEMIMAJOR_AXIS":"19870.380","PERIOD":"464.589","APOGEE":"26407.652","PERIGEE":"576.837"},{"ORDINAL":"1","COMMENT":"GENERATED VIA SPACETRACK.ORG API","ORIGINATOR":"JSPOC","NORAD_CAT_ID":"25024","OBJECT_NAME":"MAQSAT B","OBJECT_TYPE":"PAYLOAD","CLASSIFICATION_TYPE":"U","INTLDES":"97066B","EPOCH":"2016-06-22 07:39:39","EPOCH_MICROSECONDS":"468384","MEAN_MOTION":"3.08825849","ECCENTRICITY":"0.651579","INCLINATION":"7.6287","RA_OF_ASC_NODE":"218.2034","ARG_OF_PERICENTER":"99.2444","MEAN_ANOMALY":"354.5524","EPHEMERIS_TYPE":"0","ELEMENT_SET_NO":"999","REV_AT_EPOCH":"21043","BSTAR":"-5.0899e-05","MEAN_MOTION_DOT":"-5.6e-07","MEAN_MOTION_DDOT":"0","FILE":"2050192","TLE_LINE0":"0 MAQSAT B","TLE_LINE1":"1 25024U 97066B   16174.31920681 -.00000056  00000-0 -50899-4 0  9998","TLE_LINE2":"2 25024   7.6287 218.2034 6515790  99.2444 354.5524  3.08825849210435","OBJECT_ID":"1997-066B","OBJECT_NUMBER":"25024","SEMIMAJOR_AXIS":"19918.627","PERIOD":"466.282","APOGEE":"26519.052","PERIGEE":"561.933"},{"ORDINAL":"1","COMMENT":"GENERATED VIA SPACETRACK.ORG API","ORIGINATOR":"JSPOC","NORAD_CAT_ID":"25025","OBJECT_NAME":"TEAMSAT","OBJECT_TYPE":"PAYLOAD","CLASSIFICATION_TYPE":"U","INTLDES":"97066C","EPOCH":"2016-06-22 11:18:47","EPOCH_MICROSECONDS":"830752","MEAN_MOTION":"3.07948937","ECCENTRICITY":"0.6523197","INCLINATION":"7.671","RA_OF_ASC_NODE":"241.6214","ARG_OF_PERICENTER":"53.5279","MEAN_ANOMALY":"9.925","EPHEMERIS_TYPE":"0","ELEMENT_SET_NO":"999","REV_AT_EPOCH":"2282","BSTAR":"-0.00054038","MEAN_MOTION_DOT":"-1.31e-06","MEAN_MOTION_DDOT":"0","FILE":"2050785","TLE_LINE0":"0 TEAMSAT","TLE_LINE1":"1 25025U 97066C   16174.47138693 -.00000131 +00000-0 -54038-3 0  9992","TLE_LINE2":"2 25025 007.6710 241.6214 6523197 053.5279 009.9250 03.07948937022820","OBJECT_ID":"1997-066C","OBJECT_NUMBER":"25025","SEMIMAJOR_AXIS":"19956.423","PERIOD":"467.609","APOGEE":"26596.255","PERIGEE":"560.320"},{"ORDINAL":"1","COMMENT":"GENERATED VIA SPACETRACK.ORG API","ORIGINATOR":"JSPOC","NORAD_CAT_ID":"25030","OBJECT_NAME":"NAVSTAR 44 (USA 135)","OBJECT_TYPE":"PAYLOAD","CLASSIFICATION_TYPE":"U","INTLDES":"97067A","EPOCH":"2016-06-23 10:38:58","EPOCH_MICROSECONDS":"100064","MEAN_MOTION":"2.0056684","ECCENTRICITY":"0.0158152","INCLINATION":"56.72","RA_OF_ASC_NODE":"302.7598","ARG_OF_PERICENTER":"215.4757","MEAN_ANOMALY":"180.819","EPHEMERIS_TYPE":"0","ELEMENT_SET_NO":"999","REV_AT_EPOCH":"13653","BSTAR":"0","MEAN_MOTION_DOT":"-3.4e-07","MEAN_MOTION_DDOT":"0","FILE":"2050734","TLE_LINE0":"0 NAVSTAR 44 (USA 135)","TLE_LINE1":"1 25030U 97067A   16175.44372801 -.00000034  00000-0  00000+0 0  9995","TLE_LINE2":"2 25030  56.7200 302.7598 0158152 215.4757 180.8190  2.00566840136535","OBJECT_ID":"1997-067A","OBJECT_NUMBER":"25030","SEMIMAJOR_AXIS":"26560.062","PERIOD":"717.965","APOGEE":"20601.979","PERIGEE":"19761.874"},{"ORDINAL":"1","COMMENT":"GENERATED VIA SPACETRACK.ORG API","ORIGINATOR":"JSPOC","NORAD_CAT_ID":"25039","OBJECT_NAME":"IRIDIUM 43","OBJECT_TYPE":"PAYLOAD","CLASSIFICATION_TYPE":"U","INTLDES":"97069A","EPOCH":"2016-06-23 08:48:16","EPOCH_MICROSECONDS":"453440","MEAN_MOTION":"14.34217774","ECCENTRICITY":"0.0002107","INCLINATION":"86.3969","RA_OF_ASC_NODE":"171.9701","ARG_OF_PERICENTER":"84.9636","MEAN_ANOMALY":"275.18","EPHEMERIS_TYPE":"0","ELEMENT_SET_NO":"999","REV_AT_EPOCH":"97488","BSTAR":"-8.4367e-07","MEAN_MOTION_DOT":"1.7e-07","MEAN_MOTION_DDOT":"0","FILE":"2050730","TLE_LINE0":"0 IRIDIUM 43","TLE_LINE1":"1 25039U 97069A   16175.36685710  .00000017  00000-0 -84367-6 0  9999","TLE_LINE2":"2 25039  86.3969 171.9701 0002107  84.9636 275.1800 14.34217774974883","OBJECT_ID":"1997-069A","OBJECT_NUMBER":"25039","SEMIMAJOR_AXIS":"7155.804","PERIOD":"100.403","APOGEE":"779.176","PERIGEE":"776.161"},{"ORDINAL":"1","COMMENT":"GENERATED VIA SPACETRACK.ORG API","ORIGINATOR":"JSPOC","NORAD_CAT_ID":"25040","OBJECT_NAME":"IRIDIUM 41","OBJECT_TYPE":"PAYLOAD","CLASSIFICATION_TYPE":"U","INTLDES":"97069B","EPOCH":"2016-06-23 10:19:37","EPOCH_MICROSECONDS":"335936","MEAN_MOTION":"14.34217767","ECCENTRICITY":"0.0002406","INCLINATION":"86.3973","RA_OF_ASC_NODE":"171.9074","ARG_OF_PERICENTER":"82.8739","MEAN_ANOMALY":"277.2731","EPHEMERIS_TYPE":"0","ELEMENT_SET_NO":"999","REV_AT_EPOCH":"97489","BSTAR":"-1.0583e-05","MEAN_MOTION_DOT":"-1e-07","MEAN_MOTION_DDOT":"0","FILE":"2050730","TLE_LINE0":"0 IRIDIUM 41","TLE_LINE1":"1 25040U 97069B   16175.43029324 -.00000010  00000-0 -10583-4 0  9993","TLE_LINE2":"2 25040  86.3973 171.9074 0002406  82.8739 277.2731 14.34217767974895","OBJECT_ID":"1997-069B","OBJECT_NUMBER":"25040","SEMIMAJOR_AXIS":"7155.804","PERIOD":"100.403","APOGEE":"779.390","PERIGEE":"775.947"},{"ORDINAL":"1","COMMENT":"GENERATED VIA SPACETRACK.ORG API","ORIGINATOR":"JSPOC","NORAD_CAT_ID":"25041","OBJECT_NAME":"IRIDIUM 40","OBJECT_TYPE":"PAYLOAD","CLASSIFICATION_TYPE":"U","INTLDES":"97069C","EPOCH":"2016-06-23 10:56:06","EPOCH_MICROSECONDS":"504576","MEAN_MOTION":"14.3421718","ECCENTRICITY":"0.0001227","INCLINATION":"86.3964","RA_OF_ASC_NODE":"172.118","ARG_OF_PERICENTER":"91.0821","MEAN_ANOMALY":"269.0515","EPHEMERIS_TYPE":"0","ELEMENT_SET_NO":"999","REV_AT_EPOCH":"97491","BSTAR":"-3.0999e-05","MEAN_MOTION_DOT":"-6.7e-07","MEAN_MOTION_DDOT":"0","FILE":"2050730","TLE_LINE0":"0 IRIDIUM 40","TLE_LINE1":"1 25041U 97069C   16175.45563084 -.00000067  00000-0 -30999-4 0  9997","TLE_LINE2":"2 25041  86.3964 172.1180 0001227  91.0821 269.0515 14.34217180974912","OBJECT_ID":"1997-069C","OBJECT_NUMBER":"25041","SEMIMAJOR_AXIS":"7155.806","PERIOD":"100.403","APOGEE":"778.549","PERIGEE":"776.793"},{"ORDINAL":"1","COMMENT":"GENERATED VIA SPACETRACK.ORG API","ORIGINATOR":"JSPOC","NORAD_CAT_ID":"25042","OBJECT_NAME":"IRIDIUM 39","OBJECT_TYPE":"PAYLOAD","CLASSIFICATION_TYPE":"U","INTLDES":"97069D","EPOCH":"2016-06-23 09:19:24","EPOCH_MICROSECONDS":"333312","MEAN_MOTION":"14.36111574","ECCENTRICITY":"0.0003439","INCLINATION":"86.399","RA_OF_ASC_NODE":"172.2121","ARG_OF_PERICENTER":"109.3638","MEAN_ANOMALY":"250.793","EPHEMERIS_TYPE":"0","ELEMENT_SET_NO":"999","REV_AT_EPOCH":"97487","BSTAR":"2.2827e-06","MEAN_MOTION_DOT":"2.7e-07","MEAN_MOTION_DDOT":"0","FILE":"2050730","TLE_LINE0":"0 IRIDIUM 39","TLE_LINE1":"1 25042U 97069D   16175.38847608  .00000027  00000-0  22827-5 0  9993","TLE_LINE2":"2 25042  86.3990 172.2121 0003439 109.3638 250.7930 14.36111574974879","OBJECT_ID":"1997-069D","OBJECT_NUMBER":"25042","SEMIMAJOR_AXIS":"7149.511","PERIOD":"100.270","APOGEE":"773.835","PERIGEE":"768.918"},{"ORDINAL":"1","COMMENT":"GENERATED VIA SPACETRACK.ORG API","ORIGINATOR":"JSPOC","NORAD_CAT_ID":"25043","OBJECT_NAME":"IRIDIUM 38","OBJECT_TYPE":"PAYLOAD","CLASSIFICATION_TYPE":"U","INTLDES":"97069E","EPOCH":"2016-06-23 11:55:16","EPOCH_MICROSECONDS":"775616","MEAN_MOTION":"14.35956228","ECCENTRICITY":"0.000298","INCLINATION":"86.3971","RA_OF_ASC_NODE":"169.4968","ARG_OF_PERICENTER":"64.0925","MEAN_ANOMALY":"296.0578","EPHEMERIS_TYPE":"0","ELEMENT_SET_NO":"999","REV_AT_EPOCH":"97525","BSTAR":"3.1513e-05","MEAN_MOTION_DOT":"1.11e-06","MEAN_MOTION_DDOT":"0","FILE":"2050730","TLE_LINE0":"0 IRIDIUM 38","TLE_LINE1":"1 25043U 97069E   16175.49672194  .00000111  00000-0  31513-4 0  9997","TLE_LINE2":"2 25043  86.3971 169.4968 0002980  64.0925 296.0578 14.35956228975258","OBJECT_ID":"1997-069E","OBJECT_NUMBER":"25043","SEMIMAJOR_AXIS":"7150.027","PERIOD":"100.281","APOGEE":"774.023","PERIGEE":"769.761"},{"ORDINAL":"1","COMMENT":"GENERATED VIA SPACETRACK.ORG API","ORIGINATOR":"JSPOC","NORAD_CAT_ID":"25045","OBJECT_NAME":"KUPON","OBJECT_TYPE":"PAYLOAD","CLASSIFICATION_TYPE":"U","INTLDES":"97070A","EPOCH":"2016-06-22 03:26:56","EPOCH_MICROSECONDS":"248512","MEAN_MOTION":"1.00242312","ECCENTRICITY":"0.0006187","INCLINATION":"13.9215","RA_OF_ASC_NODE":"26.5244","ARG_OF_PERICENTER":"206.4021","MEAN_ANOMALY":"153.5767","EPHEMERIS_TYPE":"0","ELEMENT_SET_NO":"999","REV_AT_EPOCH":"6807","BSTAR":"0","MEAN_MOTION_DOT":"-3e-08","MEAN_MOTION_DDOT":"0","FILE":"2050785","TLE_LINE0":"0 KUPON","TLE_LINE1":"1 25045U 97070A   16174.14370658 -.00000003 +00000-0 +00000-0 0  9996","TLE_LINE2":"2 25045 013.9215 026.5244 0006187 206.4021 153.5767 01.00242312068079","OBJECT_ID":"1997-070A","OBJECT_NUMBER":"25045","SEMIMAJOR_AXIS":"42172.996","PERIOD":"1436.519","APOGEE":"35820.953","PERIGEE":"35768.768"},{"ORDINAL":"1","COMMENT":"GENERATED VIA SPACETRACK.ORG API","ORIGINATOR":"JSPOC","NORAD_CAT_ID":"25049","OBJECT_NAME":"SIRIUS 2 (GE-1E)","OBJECT_TYPE":"PAYLOAD","CLASSIFICATION_TYPE":"U","INTLDES":"97071A","EPOCH":"2016-06-22 16:19:43","EPOCH_MICROSECONDS":"320","MEAN_MOTION":"0.99400276","ECCENTRICITY":"0.0002428","INCLINATION":"6.0181","RA_OF_ASC_NODE":"57.044","ARG_OF_PERICENTER":"55.9671","MEAN_ANOMALY":"128.2492","EPHEMERIS_TYPE":"0","ELEMENT_SET_NO":"999","REV_AT_EPOCH":"6795","BSTAR":"0","MEAN_MOTION_DOT":"-2.3e-07","MEAN_MOTION_DDOT":"0","FILE":"2050422","TLE_LINE0":"0 SIRIUS 2 (GE-1E)","TLE_LINE1":"1 25049U 97071A   16174.68035880 -.00000023  00000-0  00000+0 0  9996","TLE_LINE2":"2 25049   6.0181  57.0440 0002428  55.9671 128.2492  0.99400276 67959","OBJECT_ID":"1997-071A","OBJECT_NUMBER":"25049","SEMIMAJOR_AXIS":"42410.830","PERIOD":"1448.688","APOGEE":"36042.993","PERIGEE":"36022.398"}]